CCSDS_OMM_VERS = 2.0
CREATION_DATE  = 
ORIGINATOR     = 

OBJECT_NAME    = STARLINK-36698
OBJECT_ID      = 2026-025S
CENTER_NAME    = EARTH
REF_FRAME      = TEME
TIME_SYSTEM    = UTC
MEAN_ELEMENT_THEORY = SGP/SGP4

EPOCH          = 2026-02-23T12:00:00.998784
MEAN_MOTION    = 15.80837027
ECCENTRICITY   = .0000782
INCLINATION    = 97.2697
RA_OF_ASC_NODE = 165.4054
ARG_OF_PERICENTER = 84.7494
MEAN_ANOMALY   = 89.5500

EPHEMERIS_TYPE = 0
CLASSIFICATION_TYPE = U
NORAD_CAT_ID   = 67709
ELEMENT_SET_NO = 999
REV_AT_EPOCH   = 357
BSTAR          = -.69113E-4
MEAN_MOTION_DOT = -.13371E-3
MEAN_MOTION_DDOT = 0

CCSDS_OMM_VERS = 2.0
CREATION_DATE  = 
ORIGINATOR     = 

OBJECT_NAME    = STARLINK-36344
OBJECT_ID      = 2026-025T
CENTER_NAME    = EARTH
REF_FRAME      = TEME
TIME_SYSTEM    = UTC
MEAN_ELEMENT_THEORY = SGP/SGP4

EPOCH          = 2026-02-23T12:00:00.998784
MEAN_MOTION    = 15.80902583
ECCENTRICITY   = .0001691
INCLINATION    = 97.2716
RA_OF_ASC_NODE = 165.3950
ARG_OF_PERICENTER = 48.9422
MEAN_ANOMALY   = 100.8526

EPHEMERIS_TYPE = 0
CLASSIFICATION_TYPE = U
NORAD_CAT_ID   = 67710
ELEMENT_SET_NO = 999
REV_AT_EPOCH   = 373
BSTAR          = -.50549E-3
MEAN_MOTION_DOT = -.96292E-3
MEAN_MOTION_DDOT = 0

CCSDS_OMM_VERS = 2.0
CREATION_DATE  = 
ORIGINATOR     = 

OBJECT_NAME    = STARLINK-36687
OBJECT_ID      = 2026-025U
CENTER_NAME    = EARTH
REF_FRAME      = TEME
TIME_SYSTEM    = UTC
MEAN_ELEMENT_THEORY = SGP/SGP4

EPOCH          = 2026-02-23T12:00:00.998784
MEAN_MOTION    = 15.80820474
ECCENTRICITY   = .0000758
INCLINATION    = 97.2709
RA_OF_ASC_NODE = 165.3998
ARG_OF_PERICENTER = 60.2510
MEAN_ANOMALY   = 100.9516

EPHEMERIS_TYPE = 0
CLASSIFICATION_TYPE = U
NORAD_CAT_ID   = 67711
ELEMENT_SET_NO = 999
REV_AT_EPOCH   = 373
BSTAR          = -.59553E-4
MEAN_MOTION_DOT = -.11535E-3
MEAN_MOTION_DDOT = 0

CCSDS_OMM_VERS = 2.0
CREATION_DATE  = 
ORIGINATOR     = 

OBJECT_NAME    = STARLINK-36705
OBJECT_ID      = 2026-025V
CENTER_NAME    = EARTH
REF_FRAME      = TEME
TIME_SYSTEM    = UTC
MEAN_ELEMENT_THEORY = SGP/SGP4

EPOCH          = 2026-02-23T12:00:00.998784
MEAN_MOTION    = 15.80839977
ECCENTRICITY   = .0001321
INCLINATION    = 97.2688
RA_OF_ASC_NODE = 165.4105
ARG_OF_PERICENTER = 82.3513
MEAN_ANOMALY   = 105.8308

EPHEMERIS_TYPE = 0
CLASSIFICATION_TYPE = U
NORAD_CAT_ID   = 67712
ELEMENT_SET_NO = 999
REV_AT_EPOCH   = 363
BSTAR          = -.14616E-3
MEAN_MOTION_DOT = -.28079E-3
MEAN_MOTION_DDOT = 0

CCSDS_OMM_VERS = 2.0
CREATION_DATE  = 
ORIGINATOR     = 

OBJECT_NAME    = STARLINK-36708
OBJECT_ID      = 2026-025W
CENTER_NAME    = EARTH
REF_FRAME      = TEME
TIME_SYSTEM    = UTC
MEAN_ELEMENT_THEORY = SGP/SGP4

EPOCH          = 2026-02-23T12:00:00.998784
MEAN_MOTION    = 15.81448176
ECCENTRICITY   = .0001639
INCLINATION    = 97.2685
RA_OF_ASC_NODE = 165.4251
ARG_OF_PERICENTER = 61.9266
MEAN_ANOMALY   = 159.5436

EPHEMERIS_TYPE = 0
CLASSIFICATION_TYPE = U
NORAD_CAT_ID   = 67713
ELEMENT_SET_NO = 999
REV_AT_EPOCH   = 363
BSTAR          = -.4648E-2
MEAN_MOTION_DOT = -.834072E-2
MEAN_MOTION_DDOT = 0

CCSDS_OMM_VERS = 2.0
CREATION_DATE  = 
ORIGINATOR     = 

OBJECT_NAME    = STARLINK-36702
OBJECT_ID      = 2026-025X
CENTER_NAME    = EARTH
REF_FRAME      = TEME
TIME_SYSTEM    = UTC
MEAN_ELEMENT_THEORY = SGP/SGP4

EPOCH          = 2026-02-23T12:00:00.998784
MEAN_MOTION    = 15.81065480
ECCENTRICITY   = .0001541
INCLINATION    = 97.2685
RA_OF_ASC_NODE = 165.4206
ARG_OF_PERICENTER = 76.8006
MEAN_ANOMALY   = 134.6513

EPHEMERIS_TYPE = 0
CLASSIFICATION_TYPE = U
NORAD_CAT_ID   = 67714
ELEMENT_SET_NO = 999
REV_AT_EPOCH   = 336
BSTAR          = -.21347E-2
MEAN_MOTION_DOT = -.395592E-2
MEAN_MOTION_DDOT = 0

CCSDS_OMM_VERS = 2.0
CREATION_DATE  = 
ORIGINATOR     = 

OBJECT_NAME    = STARLINK-36718
OBJECT_ID      = 2026-025Y
CENTER_NAME    = EARTH
REF_FRAME      = TEME
TIME_SYSTEM    = UTC
MEAN_ELEMENT_THEORY = SGP/SGP4

EPOCH          = 2026-02-23T12:00:00.998784
MEAN_MOTION    = 15.82471888
ECCENTRICITY   = .0001394
INCLINATION    = 97.2686
RA_OF_ASC_NODE = 165.4361
ARG_OF_PERICENTER = 85.9334
MEAN_ANOMALY   = 159.4060

EPHEMERIS_TYPE = 0
CLASSIFICATION_TYPE = U
NORAD_CAT_ID   = 67715
ELEMENT_SET_NO = 999
REV_AT_EPOCH   = 357
BSTAR          = -.92655E-2
MEAN_MOTION_DOT = -.1667818E-1
MEAN_MOTION_DDOT = 0

CCSDS_OMM_VERS = 2.0
CREATION_DATE  = 
ORIGINATOR     = 

OBJECT_NAME    = STARLINK-36715
OBJECT_ID      = 2026-025Z
CENTER_NAME    = EARTH
REF_FRAME      = TEME
TIME_SYSTEM    = UTC
MEAN_ELEMENT_THEORY = SGP/SGP4

EPOCH          = 2026-02-23T12:00:00.998784
MEAN_MOTION    = 15.82048065
ECCENTRICITY   = .0001516
INCLINATION    = 97.2682
RA_OF_ASC_NODE = 165.4310
ARG_OF_PERICENTER = 70.1621
MEAN_ANOMALY   = 163.9597

EPHEMERIS_TYPE = 0
CLASSIFICATION_TYPE = U
NORAD_CAT_ID   = 67716
ELEMENT_SET_NO = 999
REV_AT_EPOCH   = 363
BSTAR          = -.82595E-2
MEAN_MOTION_DOT = -.1482035E-1
MEAN_MOTION_DDOT = 0

CCSDS_OMM_VERS = 2.0
CREATION_DATE  = 
ORIGINATOR     = 

OBJECT_NAME    = STARLINK-36385
OBJECT_ID      = 2026-025AA
CENTER_NAME    = EARTH
REF_FRAME      = TEME
TIME_SYSTEM    = UTC
MEAN_ELEMENT_THEORY = SGP/SGP4

EPOCH          = 2026-02-23T12:00:00.998784
MEAN_MOTION    = 15.80832298
ECCENTRICITY   = .0000939
INCLINATION    = 97.2692
RA_OF_ASC_NODE = 165.4161
ARG_OF_PERICENTER = 81.2211
MEAN_ANOMALY   = 118.1335

EPHEMERIS_TYPE = 0
CLASSIFICATION_TYPE = U
NORAD_CAT_ID   = 67717
ELEMENT_SET_NO = 999
REV_AT_EPOCH   = 363
BSTAR          = -.16849E-3
MEAN_MOTION_DOT = -.32319E-3
MEAN_MOTION_DDOT = 0

CCSDS_OMM_VERS = 2.0
CREATION_DATE  = 
ORIGINATOR     = 

OBJECT_NAME    = CZ-2F DEB
OBJECT_ID      = 2026-024E
CENTER_NAME    = EARTH
REF_FRAME      = TEME
TIME_SYSTEM    = UTC
MEAN_ELEMENT_THEORY = SGP/SGP4

EPOCH          = 2026-02-23T10:21:31.356288
MEAN_MOTION    = 15.19250072
ECCENTRICITY   = .0251945
INCLINATION    = 50.3148
RA_OF_ASC_NODE = 88.4598
ARG_OF_PERICENTER = 223.9336
MEAN_ANOMALY   = 134.1346

EPHEMERIS_TYPE = 0
CLASSIFICATION_TYPE = U
NORAD_CAT_ID   = 67718
ELEMENT_SET_NO = 999
REV_AT_EPOCH   = 246
BSTAR          = .43921E-2
MEAN_MOTION_DOT = .228577E-2
MEAN_MOTION_DDOT = 0

CCSDS_OMM_VERS = 2.0
CREATION_DATE  = 
ORIGINATOR     = 

OBJECT_NAME    = CZ-2F DEB
OBJECT_ID      = 2026-024F
CENTER_NAME    = EARTH
REF_FRAME      = TEME
TIME_SYSTEM    = UTC
MEAN_ELEMENT_THEORY = SGP/SGP4

EPOCH          = 2026-02-23T12:07:48.376992
MEAN_MOTION    = 14.99221144
ECCENTRICITY   = .0326685
INCLINATION    = 49.7909
RA_OF_ASC_NODE = 89.9632
ARG_OF_PERICENTER = 214.6182
MEAN_ANOMALY   = 143.3102

EPHEMERIS_TYPE = 0
CLASSIFICATION_TYPE = U
NORAD_CAT_ID   = 67719
ELEMENT_SET_NO = 999
REV_AT_EPOCH   = 211
BSTAR          = .42794E-2
MEAN_MOTION_DOT = .171057E-2
MEAN_MOTION_DDOT = 0

CCSDS_OMM_VERS = 2.0
CREATION_DATE  = 
ORIGINATOR     = 

OBJECT_NAME    = CZ-2F DEB
OBJECT_ID      = 2026-024G
CENTER_NAME    = EARTH
REF_FRAME      = TEME
TIME_SYSTEM    = UTC
MEAN_ELEMENT_THEORY = SGP/SGP4

EPOCH          = 2026-02-23T11:13:36.673248
MEAN_MOTION    = 14.96551752
ECCENTRICITY   = .0337404
INCLINATION    = 49.8300
RA_OF_ASC_NODE = 90.4804
ARG_OF_PERICENTER = 210.8926
MEAN_ANOMALY   = 147.1774

EPHEMERIS_TYPE = 0
CLASSIFICATION_TYPE = U
NORAD_CAT_ID   = 67720
ELEMENT_SET_NO = 999
REV_AT_EPOCH   = 242
BSTAR          = .43895E-2
MEAN_MOTION_DOT = .17089E-2
MEAN_MOTION_DDOT = 0

