STARLINK-36698          
1 67709U 26025S   26054.50001156 -.00013371  00000+0 -69113-4 0  9999
2 67709  97.2697 165.4054 0000782  84.7494  89.5500 15.80837027  3572
STARLINK-36344          
1 67710U 26025T   26054.50001156 -.00096292  00000+0 -50549-3 0  9996
2 67710  97.2716 165.3950 0001691  48.9422 100.8526 15.80902583  3736
STARLINK-36687          
1 67711U 26025U   26054.50001156 -.00011535  00000+0 -59553-4 0  9999
2 67711  97.2709 165.3998 0000758  60.2510 100.9516 15.80820474  3737
STARLINK-36705          
1 67712U 26025V   26054.50001156 -.00028079  00000+0 -14616-3 0  9991
2 67712  97.2688 165.4105 0001321  82.3513 105.8308 15.80839977  3630
STARLINK-36708          
1 67713U 26025W   26054.50001156 -.00834072  00000+0 -46480-2 0  9993
2 67713  97.2685 165.4251 0001639  61.9266 159.5436 15.81448176  3636
STARLINK-36702          
1 67714U 26025X   26054.50001156 -.00395592  00000+0 -21347-2 0  9998
2 67714  97.2685 165.4206 0001541  76.8006 134.6513 15.81065480  3369
STARLINK-36718          
1 67715U 26025Y   26054.50001156 -.01667818  00000+0 -92655-2 0  9993
2 67715  97.2686 165.4361 0001394  85.9334 159.4060 15.82471888  3573
STARLINK-36715          
1 67716U 26025Z   26054.50001156 -.01482035  00000+0 -82595-2 0  9992
2 67716  97.2682 165.4310 0001516  70.1621 163.9597 15.82048065  3634
STARLINK-36385          
1 67717U 26025AA  26054.50001156 -.00032319  00000+0 -16849-3 0  9998
2 67717  97.2692 165.4161 0000939  81.2211 118.1335 15.80832298  3635
CZ-2F DEB               
1 67718U 26024E   26054.43161292  .00228577  00000+0  43921-2 0  9999
2 67718  50.3148  88.4598 0251945 223.9336 134.1346 15.19250072  2464
CZ-2F DEB               
1 67719U 26024F   26054.50542103  .00171057  00000+0  42794-2 0  9999
2 67719  49.7909  89.9632 0326685 214.6182 143.3102 14.99221144  2116
CZ-2F DEB               
1 67720U 26024G   26054.46778557  .00170890  00000+0  43895-2 0  9997
2 67720  49.8300  90.4804 0337404 210.8926 147.1774 14.96551752  2426
